{"type": "FeatureCollection", "features": [ {"type": "Feature", "properties": {"norad_id": 60989, "name": "SENTINEL-2C", "group": "resource", "lat": -18.259662860595153, "lon": -115.8723551895425, "alt_km": 794.1736743694664, "timestamp": "2025-12-20T14:38:01.616485+00:00", "meta": {"OBJECT_NAME": "SENTINEL-2C", "OBJECT_ID": "2024-157A", "EPOCH": "2025-12-20T03:38:23.300448", "MEAN_MOTION": 14.30820273, "ECCENTRICITY": 0.00012037, "INCLINATION": 98.5676, "RA_OF_ASC_NODE": 66.5273, "ARG_OF_PERICENTER": 95.83, "MEAN_ANOMALY": 264.302, "EPHEMERIS_TYPE": 0, "CLASSIFICATION_TYPE": "U", "NORAD_CAT_ID": 60989, "ELEMENT_SET_NO": 999, "REV_AT_EPOCH": 6738, "BSTAR": 5.6238603e-05, "MEAN_MOTION_DOT": 1.04e-06, "MEAN_MOTION_DDOT": 0}, "tle": {"line1": "1 60989U 24157A   25354.15165857  .00000104  00000+0  56239-4 0  9991", "line2": "2 60989  98.5676  66.5273 0001203  95.8300 264.3020 14.30820273 67386"}}, "geometry": {"type": "Point", "coordinates": [-115.8723551895425, -18.259662860595153]}}, {"type": "Feature", "properties": {"norad_id": 61735, "name": "IONOSFERA-M 1", "group": "resource", "lat": -54.63342772379868, "lon": 31.88012558552746, "alt_km": 823.4817201328606, "timestamp": "2025-12-20T14:38:01.616495+00:00", "meta": {"OBJECT_NAME": "IONOSFERA-M 1", "OBJECT_ID": "2024-199A", "EPOCH": "2025-12-20T06:46:42.954240", "MEAN_MOTION": 14.22715558, "ECCENTRICITY": 5.988e-05, "INCLINATION": 98.7399, "RA_OF_ASC_NODE": 224.0726, "ARG_OF_PERICENTER": 12.5792, "MEAN_ANOMALY": 347.54, "EPHEMERIS_TYPE": 0, "CLASSIFICATION_TYPE": "U", "NORAD_CAT_ID": 61735, "ELEMENT_SET_NO": 999, "REV_AT_EPOCH": 10226, "BSTAR": 3.8020775e-05, "MEAN_MOTION_DOT": 4.1e-07, "MEAN_MOTION_DDOT": 0}, "tle": {"line1": "1 61735U 24199A   25354.28244160  .00000041  00000+0  38021-4 0  9995", "line2": "2 61735  98.7399 224.0726 0000598  12.5792 347.5400 14.22715558102264"}}, "geometry": {"type": "Point", "coordinates": [31.88012558552746, -54.63342772379868]}}, {"type": "Feature", "properties": {"norad_id": 61736, "name": "IONOSFERA-M 2", "group": "resource", "lat": 57.124070433235374, "lon": -149.45905354419082, "alt_km": 809.6851801185012, "timestamp": "2025-12-20T14:38:01.616505+00:00", "meta": {"OBJECT_NAME": "IONOSFERA-M 2", "OBJECT_ID": "2024-199B", "EPOCH": "2025-12-20T05:55:19.157664", "MEAN_MOTION": 14.22717745, "ECCENTRICITY": 0.00018042, "INCLINATION": 98.7397, "RA_OF_ASC_NODE": 223.9496, "ARG_OF_PERICENTER": 100.9707, "MEAN_ANOMALY": 259.1674, "EPHEMERIS_TYPE": 0, "CLASSIFICATION_TYPE": "U", "NORAD_CAT_ID": 61736, "ELEMENT_SET_NO": 999, "REV_AT_EPOCH": 10538, "BSTAR": 3.8608795e-05, "MEAN_MOTION_DOT": 4.2e-07, "MEAN_MOTION_DDOT": 0}, "tle": {"line1": "1 61736U 24199B   25354.24674951  .00000042  00000+0  38609-4 0  9990", "line2": "2 61736  98.7397 223.9496 0001804 100.9707 259.1674 14.22717745105381"}}, "geometry": {"type": "Point", "coordinates": [-149.45905354419082, 57.124070433235374]}}, {"type": "Feature", "properties": {"norad_id": 63772, "name": "BIOMASS", "group": "resource", "lat": 75.69236916098932, "lon": 145.703456479137, "alt_km": 660.9991237859913, "timestamp": "2025-12-20T14:38:01.616515+00:00", "meta": {"OBJECT_NAME": "BIOMASS", "OBJECT_ID": "2025-090A", "EPOCH": "2025-12-20T01:11:17.012544", "MEAN_MOTION": 14.67536115, "ECCENTRICITY": 0.00010834, "INCLINATION": 98.07, "RA_OF_ASC_NODE": 178.9528, "ARG_OF_PERICENTER": 80.9367, "MEAN_ANOMALY": 279.196, "EPHEMERIS_TYPE": 0, "CLASSIFICATION_TYPE": "U", "NORAD_CAT_ID": 63772, "ELEMENT_SET_NO": 999, "REV_AT_EPOCH": 3441, "BSTAR": 0.00013710423, "MEAN_MOTION_DOT": 7.3e-06, "MEAN_MOTION_DDOT": 0}, "tle": {"line1": "1 63772U 25090A   25354.04950246  .00000730  00000+0  13710-3 0  9994", "line2": "2 63772  98.0700 178.9528 0001083  80.9367 279.1960 14.67536115 34411"}}, "geometry": {"type": "Point", "coordinates": [145.703456479137, 75.69236916098932]}}, {"type": "Feature", "properties": {"norad_id": 64694, "name": "GOSAT-GW (IBUKI GW)", "group": "resource", "lat": -70.01559535835719, "lon": -47.137089461764845, "alt_km": 677.0468114776004, "timestamp": "2025-12-20T14:38:01.616525+00:00", "meta": {"OBJECT_NAME": "GOSAT-GW (IBUKI GW)", "OBJECT_ID": "2025-141A", "EPOCH": "2025-12-20T06:46:41.273760", "MEAN_MOTION": 14.67565151, "ECCENTRICITY": 0.00014406, "INCLINATION": 98.0435, "RA_OF_ASC_NODE": 289.6587, "ARG_OF_PERICENTER": 84.071, "MEAN_ANOMALY": 276.0659, "EPHEMERIS_TYPE": 0, "CLASSIFICATION_TYPE": "U", "NORAD_CAT_ID": 64694, "ELEMENT_SET_NO": 999, "REV_AT_EPOCH": 2560, "BSTAR": 8.4142998e-05, "MEAN_MOTION_DOT": 4.3e-06, "MEAN_MOTION_DDOT": 0}, "tle": {"line1": "1 64694U 25141A   25354.28242215  .00000430  00000+0  84143-4 0  9997", "line2": "2 64694  98.0435 289.6587 0001440  84.0710 276.0659 14.67565151 25603"}}, "geometry": {"type": "Point", "coordinates": [-47.137089461764845, -70.01559535835719]}}, {"type": "Feature", "properties": {"norad_id": 64876, "name": "IONOSFERA-M 3", "group": "resource", "lat": 64.86621959591336, "lon": -62.51701686795112, "alt_km": 812.7461451493728, "timestamp": "2025-12-20T14:38:01.616536+00:00", "meta": {"OBJECT_NAME": "IONOSFERA-M 3", "OBJECT_ID": "2025-155A", "EPOCH": "2025-12-20T05:52:34.569120", "MEAN_MOTION": 14.21442731, "ECCENTRICITY": 0.00020255, "INCLINATION": 98.5793, "RA_OF_ASC_NODE": 315.8988, "ARG_OF_PERICENTER": 48.0566, "MEAN_ANOMALY": 312.0784, "EPHEMERIS_TYPE": 0, "CLASSIFICATION_TYPE": "U", "NORAD_CAT_ID": 64876, "ELEMENT_SET_NO": 999, "REV_AT_EPOCH": 2098, "BSTAR": 3.7151123e-05, "MEAN_MOTION_DOT": 3.9e-07, "MEAN_MOTION_DDOT": 0}, "tle": {"line1": "1 64876U 25155A   25354.24484455  .00000039  00000+0  37151-4 0  9996", "line2": "2 64876  98.5793 315.8988 0002025  48.0566 312.0784 14.21442731 20987"}}, "geometry": {"type": "Point", "coordinates": [-62.51701686795112, 64.86621959591336]}}, {"type": "Feature", "properties": {"norad_id": 64877, "name": "IONOSFERA-M 4", "group": "resource", "lat": -65.58673333938052, "lon": 116.74720445969244, "alt_km": 828.6812678778624, "timestamp": "2025-12-20T14:38:01.616546+00:00", "meta": {"OBJECT_NAME": "IONOSFERA-M 4", "OBJECT_ID": "2025-155B", "EPOCH": "2025-12-20T05:01:42.008736", "MEAN_MOTION": 14.21443868, "ECCENTRICITY": 0.00014269, "INCLINATION": 98.5791, "RA_OF_ASC_NODE": 315.7839, "ARG_OF_PERICENTER": 56.1208, "MEAN_ANOMALY": 304.0106, "EPHEMERIS_TYPE": 0, "CLASSIFICATION_TYPE": "U", "NORAD_CAT_ID": 64877, "ELEMENT_SET_NO": 999, "REV_AT_EPOCH": 2097, "BSTAR": 3.6894136e-05, "MEAN_MOTION_DOT": 3.8e-07, "MEAN_MOTION_DDOT": 0}, "tle": {"line1": "1 64877U 25155B   25354.20951399  .00000038  00000+0  36894-4 0  9991", "line2": "2 64877  98.5791 315.7839 0001426  56.1208 304.0106 14.21443868 20977"}}, "geometry": {"type": "Point", "coordinates": [116.74720445969244, -65.58673333938052]}}, {"type": "Feature", "properties": {"norad_id": 64899, "name": "MICROCARB", "group": "resource", "lat": 32.77209680272813, "lon": 64.63307281206701, "alt_km": 652.0044166436683, "timestamp": "2025-12-20T14:38:01.616556+00:00", "meta": {"OBJECT_NAME": "MICROCARB", "OBJECT_ID": "2025-156A", "EPOCH": "2025-12-19T23:48:05.443488", "MEAN_MOTION": 14.72067931, "ECCENTRICITY": 0.00174903, "INCLINATION": 98.0018, "RA_OF_ASC_NODE": 69.2207, "ARG_OF_PERICENTER": 122.9295, "MEAN_ANOMALY": 237.3598, "EPHEMERIS_TYPE": 0, "CLASSIFICATION_TYPE": "U", "NORAD_CAT_ID": 64899, "ELEMENT_SET_NO": 999, "REV_AT_EPOCH": 2160, "BSTAR": 8.5403673e-05, "MEAN_MOTION_DOT": 4.88e-06, "MEAN_MOTION_DDOT": 0}, "tle": {"line1": "1 64899U 25156A   25353.99172967  .00000488  00000+0  85404-4 0  9997", "line2": "2 64899  98.0018  69.2207 0017490 122.9295 237.3598 14.72067931 21607"}}, "geometry": {"type": "Point", "coordinates": [64.63307281206701, 32.77209680272813]}}, {"type": "Feature", "properties": {"norad_id": 64900, "name": "CO3D 3", "group": "resource", "lat": -3.6857264761266917, "lon": 71.34639531633131, "alt_km": 508.6488953824428, "timestamp": "2025-12-20T14:38:01.616566+00:00", "meta": {"OBJECT_NAME": "CO3D 3", "OBJECT_ID": "2025-156B", "EPOCH": "2025-12-20T06:45:04.918752", "MEAN_MOTION": 15.20201697, "ECCENTRICITY": 0.00013743, "INCLINATION": 97.4346, "RA_OF_ASC_NODE": 70.5407, "ARG_OF_PERICENTER": 79.6916, "MEAN_ANOMALY": 280.4474, "EPHEMERIS_TYPE": 0, "CLASSIFICATION_TYPE": "U", "NORAD_CAT_ID": 64900, "ELEMENT_SET_NO": 999, "REV_AT_EPOCH": 2235, "BSTAR": 0.00024967883, "MEAN_MOTION_DOT": 5.341e-05, "MEAN_MOTION_DDOT": 0}, "tle": {"line1": "1 64900U 25156B   25354.28130693  .00005341  00000+0  24968-3 0  9993", "line2": "2 64900  97.4346  70.5407 0001374  79.6916 280.4474 15.20201697 22354"}}, "geometry": {"type": "Point", "coordinates": [71.34639531633131, -3.6857264761266917]}}, {"type": "Feature", "properties": {"norad_id": 64901, "name": "CO3D 4", "group": "resource", "lat": -4.32579469564553, "lon": 71.42998370429734, "alt_km": 509.6231796868087, "timestamp": "2025-12-20T14:38:01.616576+00:00", "meta": {"OBJECT_NAME": "CO3D 4", "OBJECT_ID": "2025-156C", "EPOCH": "2025-12-19T14:57:26.055072", "MEAN_MOTION": 15.20230123, "ECCENTRICITY": 0.0001264, "INCLINATION": 97.434, "RA_OF_ASC_NODE": 69.8917, "ARG_OF_PERICENTER": 174.7354, "MEAN_ANOMALY": 185.3894, "EPHEMERIS_TYPE": 0, "CLASSIFICATION_TYPE": "U", "NORAD_CAT_ID": 64901, "ELEMENT_SET_NO": 999, "REV_AT_EPOCH": 2225, "BSTAR": 0.00021367, "MEAN_MOTION_DOT": 4.564e-05, "MEAN_MOTION_DDOT": 0}, "tle": {"line1": "1 64901U 25156C   25353.62321823  .00004564  00000+0  21367-3 0  9994", "line2": "2 64901  97.4340  69.8917 0001264 174.7354 185.3894 15.20230123 22251"}}, "geometry": {"type": "Point", "coordinates": [71.42998370429734, -4.32579469564553]}}]}